H1 CPF  2 ESA 2024 11 20 10 325 01 galileo202
H2  1405002 7202    40129 2024 11 19 23 59 42 2024 11 24 23 59 42   900 1 1  0 0 0  1
H9
10 0 60637  64782.000000  0      -2482951.193     -21451891.840     -21719225.976
10 0 60637  65682.000000  0      -1297177.844     -22743553.569     -21046380.019
10 0 60637  66582.000000  0       -272358.959     -24032184.898     -20145797.081
10 0 60637  67482.000000  0        586496.751     -25296389.442     -19034341.300
10 0 60637  68382.000000  0       1278902.922     -26514033.599     -17729299.642
10 0 60637  69282.000000  0       1808668.357     -27662812.105     -16248275.641
10 0 60637  70182.000000  0       2183637.380     -28720775.712     -14609133.322
10 0 60637  71082.000000  0       2415400.368     -29666819.633     -12829980.811
10 0 60637  71982.000000  0       2518975.771     -30481131.967     -10929185.423
10 0 60637  72882.000000  0       2512463.931     -31145601.606      -8925413.810
10 0 60637  73782.000000  0       2416672.369     -31644185.138      -6837692.174
10 0 60637  74682.000000  0       2254711.628     -31963232.235      -4685482.531
10 0 60637  75582.000000  0       2051560.275     -32091768.761      -2488771.648
10 0 60637  76482.000000  0       1833597.198     -32021736.690       -268169.524
10 0 60637  77382.000000  0       1628098.758     -31748189.571       1954985.859
10 0 60637  78282.000000  0       1462697.843     -31269441.986       4158521.370
10 0 60637  79182.000000  0       1364801.261     -30587171.011       6319324.105
10 0 60637  80082.000000  0       1360961.426     -29706467.237       8413246.038
10 0 60637  80982.000000  0       1476197.967     -28635832.256      10415027.202
10 0 60637  81882.000000  0       1733265.087     -27387118.824      12298250.197
10 0 60637  82782.000000  0       2151861.473     -25975408.946      14035343.498
10 0 60637  83682.000000  0       2747782.108     -24418824.051      15597657.000
10 0 60637  84582.000000  0       3532016.123     -22738260.095      16955640.451
10 0 60637  85482.000000  0       4509803.264     -20957038.990      18079163.511
10 0 60637  86382.000000  0       5679674.995     -19100466.354      18938024.082
10 0 60638    882.000000  0       7032526.290     -17195284.506      19502697.337
10 0 60638   1782.000000  0       8550791.998     -15269009.630      19745377.772
10 0 60638   2682.000000  0      10207836.851     -13349144.118      19641355.441
10 0 60638   3582.000000  0      11967707.212     -11462260.983      19170738.063
10 0 60638   4482.000000  0      13785426.683      -9632968.988      18320475.928
10 0 60638   5382.000000  0      15608030.777      -7882787.060      17086562.867
10 0 60638   6282.000000  0      17376505.871      -6228985.636      15476180.006
10 0 60638   7182.000000  0      19028702.490      -4683488.865      13509442.131
10 0 60638   8082.000000  0      20503123.612      -3251967.824      11220340.269
10 0 60638   8982.000000  0      21743266.518      -1933277.558       8656499.557
10 0 60638   9882.000000  0      22701982.679       -719383.308       5877524.429
10 0 60638  10782.000000  0      23345201.817        404128.510       2951972.780
10 0 60638  11682.000000  0      23654416.687       1456948.511        -46686.394
10 0 60638  12582.000000  0      23627554.528       2462453.333      -3044534.836
10 0 60638  13482.000000  0      23278197.800       3445818.289      -5971412.828
10 0 60638  14382.000000  0      22633439.856       4432071.168      -8764312.292
10 0 60638  15282.000000  0      21730865.050       5444311.341     -11369637.278
10 0 60638  16182.000000  0      20615187.378       6502259.190     -13744284.409
10 0 60638  17082.000000  0      19334995.771       7621221.525     -15855706.480
10 0 60638  17982.000000  0      17939902.964       8811484.514     -17681233.360
10 0 60638  18882.000000  0      16478240.341      10078092.173     -19206942.719
10 0 60638  19782.000000  0      14995321.154      11420939.680     -20426331.178
10 0 60638  20682.000000  0      13532220.106      12835102.572     -21338968.963
10 0 60638  21582.000000  0      12124982.917      14311328.228     -21949253.288
10 0 60638  22482.000000  0      10804172.661      15836628.073     -22265320.349
10 0 60638  23382.000000  0       9594668.325      17394922.797     -22298136.817
10 0 60638  24282.000000  0       8515646.168      18967705.792     -22060767.365
10 0 60638  25182.000000  0       7580690.629      20534700.620     -21567801.740
10 0 60638  26082.000000  0       6797995.904      22074496.446     -20834919.396
10 0 60638  26982.000000  0       6170630.962      23565151.225     -19878568.833
10 0 60638  27882.000000  0       5696849.588      24984756.431     -18715740.466
10 0 60638  28782.000000  0       5370433.427      26311959.749     -17363814.571
10 0 60638  29682.000000  0       5181060.500      27526443.741     -15840468.945
10 0 60638  30582.000000  0       5114694.646      28609359.475     -14163633.845
10 0 60638  31482.000000  0       5153993.436      29543714.517     -12351484.321
10 0 60638  32382.000000  0       5278733.390      30314714.913     -10422462.245
10 0 60638  33282.000000  0       5466252.248      30910060.706      -8395322.000
10 0 60638  34182.000000  0       5691908.648      31320194.422      -6289195.137
10 0 60638  35082.000000  0       5929560.082      31538501.692      -4123670.160
10 0 60638  35982.000000  0       6152060.371      31561462.884      -1918884.183
10 0 60638  36882.000000  0       6331778.382      31388754.252        304376.690
10 0 60638  37782.000000  0       6441140.100      31023296.685       2524571.618
10 0 60638  38682.000000  0       6453196.674      30471249.665       4719298.017
10 0 60638  39582.000000  0       6342221.467      29741947.472       6865188.620
10 0 60638  40482.000000  0       6084339.476      28847774.080       8937819.901
10 0 60638  41382.000000  0       5658192.547      27803972.495      10911641.917
10 0 60638  42282.000000  0       5045643.245      26628383.621      12759943.448
10 0 60638  43182.000000  0       4232518.757      25341109.148      14454871.289
10 0 60638  44082.000000  0       3209392.973      23964092.561      15967528.858
10 0 60638  44982.000000  0       1972399.142      22520612.505      17268186.760
10 0 60638  45882.000000  0        524055.879      21034683.711      18326646.131
10 0 60638  46782.000000  0      -1125925.533      19530363.164      19112803.179
10 0 60638  47682.000000  0      -2959906.056      18030963.881      19597468.031
10 0 60638  48582.000000  0      -4951738.297      16558186.579      19753488.663
10 0 60638  49482.000000  0      -7066457.394      15131191.511      19557215.580
10 0 60638  50382.000000  0      -9260396.208      13765649.506      18990307.615
10 0 60638  51282.000000  0     -11481903.663      12472832.107      18041817.201
10 0 60638  52182.000000  0     -13672843.707      11258823.330      16710402.891
10 0 60638  53082.000000  0     -15771001.256      10123954.526      15006407.402
10 0 60638  53982.000000  0     -17713401.638       9062571.107      12953438.385
10 0 60638  54882.000000  0     -19440361.217       8063226.047      10589041.484
10 0 60638  55782.000000  0     -20899862.614       7109353.789       7964111.034
10 0 60638  56682.000000  0     -22051660.554       6180411.285       5140869.862
10 0 60638  57582.000000  0     -22870461.695       5253393.665       2189539.487
10 0 60638  58482.000000  0     -23347641.271       4304563.014       -815871.860
10 0 60638  59382.000000  0     -23491244.113       3311192.469      -3802028.737
10 0 60638  60282.000000  0     -23324372.241       2253135.734      -6700313.884
10 0 60638  61182.000000  0     -22882359.742       1114078.982      -9449952.087
10 0 60638  62082.000000  0     -22209287.712       -117600.556     -11999964.830
10 0 60638  62982.000000  0     -21354381.395      -1448378.534     -14309970.123
10 0 60638  63882.000000  0     -20368705.825      -2879489.217     -16350028.757
10 0 60638  64782.000000  0     -19302406.507      -4407124.210     -18099823.561
10 0 60638  65682.000000  0     -18202586.446      -6022847.133     -19547457.804
10 0 60638  66582.000000  0     -17111799.895      -7714152.337     -20688107.376
10 0 60638  67482.000000  0     -16067080.971      -9465107.780     -21522691.910
10 0 60638  68382.000000  0     -15099401.949     -11257036.156     -22056664.511
10 0 60638  69282.000000  0     -14233457.477     -13069201.278     -22298968.528
10 0 60638  70182.000000  0     -13487685.142     -14879477.322     -22261174.767
10 0 60638  71082.000000  0     -12874451.183     -16664986.561     -21956791.460
10 0 60638  71982.000000  0     -12400348.057     -18402696.839     -21400728.491
10 0 60638  72882.000000  0     -12066565.753     -20069973.863     -20608893.345
10 0 60638  73782.000000  0     -11869310.617     -21645085.818     -19597896.165
10 0 60638  74682.000000  0     -11800254.307     -23107659.215     -18384843.373
10 0 60638  75582.000000  0     -11847001.706     -24439085.694     -16987202.162
10 0 60638  76482.000000  0     -11993570.924     -25622879.826     -15422721.290
10 0 60638  77382.000000  0     -12220881.392     -26644988.069     -13709396.389
10 0 60638  78282.000000  0     -12507247.884     -27494048.899     -11865470.543
10 0 60638  79182.000000  0     -12828879.516     -28161603.974      -9909462.856
10 0 60638  80082.000000  0     -13160383.521     -28642259.898      -7860219.391
10 0 60638  80982.000000  0     -13475274.137     -28933799.856      -5736982.010
10 0 60638  81882.000000  0     -13746487.295     -29037244.005      -3559471.483
10 0 60638  82782.000000  0     -13946902.129     -28956857.094      -1347981.650
10 0 60638  83682.000000  0     -14049870.681     -28700101.325        876518.508
10 0 60638  84582.000000  0     -14029757.428     -28277531.928       3092278.408
10 0 60638  85482.000000  0     -13862490.661     -27702632.293       5276659.355
99